SHERPA-LTC2             
1 53754U 22107BG  26130.98188025  .00004285  00000+0  22393-3 0  9999
2 53754  53.2348  17.7803 0397842 122.0886 241.9363 14.69165493197077
CENTISPACE-1 S3         
1 53757U 22108A   26131.13439131  .00000190  00000+0  76405-4 0  9993
2 53757  53.5323 208.4707 0008288 241.3574 118.6568 14.61218071196114
CENTISPACE-1 S4         
1 53758U 22108B   26131.13583028  .00000294  00000+0  95970-4 0  9992
2 53758  53.5298 206.1569 0008076 226.9701 133.0598 14.61890591196143
BLUEWALKER-3            
1 53807U 22111AL  26130.94501036  .00003489  00000+0  10287-3 0  9994
2 53807  53.2287 208.7467 0007345  65.3495 294.8275 15.37823657204478
YUNHAI-1 03             
1 53877U 22115A   26131.17328113  .00000267  00000+0  11412-3 0  9996
2 53877  98.5538 129.7918 0005359 143.6368 216.5181 14.32692076190217
CENTISPACE-1 S5         
1 54020U 22126A   26131.18835661  .00000499  00000+0  13340-3 0  9990
2 54020  55.0003   1.0098 0012183 358.3992   1.6961 14.62945762191626
CENTISPACE-1 S6         
1 54021U 22126B   26131.16340108  .00000398  00000+0  11535-3 0  9998
2 54021  55.0005   2.8049 0014024 357.2272   2.8642 14.62236215191589
OTB-3-GAZELLE           
1 54023U 22127A   26131.23155793  .00000095  00000+0  41547-4 0  9994
2 54023  98.3940 123.5010 0012065 303.6321  56.3717 14.42660808189032
HJ-2E                   
1 54035U 22132A   26131.20509172  .00004773  00000+0  21223-3 0  9999
2 54035  97.3810 136.2649 0022161 135.5684 224.7335 15.21758856198790
COSMOS 2561             
1 54109U 22137A   26131.19839690  .00009254  00000+0  16193-3 0  9994
2 54109  96.9225 191.5996 0010879 153.2518 206.9298 15.50761878200617
GONETS-M 24             
1 54151U 22139B   26131.20731581  .00000013  00000+0  22716-4 0  9998
2 54151  82.5000  10.3622 0016231 316.0844  43.8944 12.42889687161056
GONETS-M 25             
1 54152U 22139C   26131.19366456  .00000014  00000+0  32189-4 0  9998
2 54152  82.5077  11.0369 0020116 313.8824  46.0594 12.42888977161054
SKIF-D                  
1 54153U 22139D   26129.28440799  .00000040  00000+0  00000+0 0  9990
2 54153  89.9558  96.6795 0007373 214.5123 145.4786  5.00439038 62166
MATS                    
1 54227U 22147A   26130.95496363  .00002925  00000+0  20964-3 0  9994
2 54227  97.6826 132.7202 0011728 332.4827  27.5777 15.05120392192167
JILIN-1 GAOFEN 03D54    
1 54254U 22155D   26131.18362090  .00116923  00000+0  55830-3 0  9992
2 54254  97.6082 279.9059 0002214 166.8067 193.3260 15.82487871194423
EOS-6 (OCEANSAT-3)      
1 54361U 22158A   26131.23721612  .00000156  00000+0  54903-4 0  9990
2 54361  98.3515 229.9257 0002258  90.0308 270.1143 14.47018739182491
DONGPO 09               
1 54685U 22167D   26131.20905558  .00007602  00000+0  22274-3 0  9997
2 54685  97.6877 300.5972 0001366 231.0492 129.0629 15.35516537189779
DONGPO 08               
1 54686U 22167E   26131.19113383  .00006565  00000+0  20898-3 0  9990
2 54686  97.6838 297.9293 0006997 302.2082  57.8480 15.32921295189651
2022-167F               
1 54687U 22167F   26131.10531589  .00093713  00000+0  48770-3 0  9994
2 54687  97.6175 314.8150 0003219 182.8780 177.2469 15.80676727190957
DONGPO 10               
1 54689U 22167H   26131.21693442  .00007061  00000+0  21923-3 0  9997
2 54689  97.6922 299.8207 0004047 234.7810 125.3053 15.33701055189698
STAR VIBE               
1 55009U 23001A   26131.18294009  .00009651  00000+0  23135-3 0  9998
2 55009  97.3193 195.5227 0004523 235.0564 125.0259 15.41605949186523
BRO-8                   
1 55011U 23001C   26131.19895502  .00020392  00000+0  40708-3 0  9997
2 55011  97.3239 195.9112 0004804 241.6307 118.4459 15.46856326186489
CONNECTA T1.2           
1 55012U 23001D   26131.16206612  .00025134  00000+0  48007-3 0  9992
2 55012  97.3299 201.2688 0005797 213.5158 146.5726 15.48089338186818
ION SCV-008             
1 55051U 23001AU  26131.18032939  .00004494  00000+0  16624-3 0  9992
2 55051  97.5682 226.8979 0016086 139.7205 220.5229 15.28112441185685
ION SCV-007             
1 55060U 23001BD  26131.15436273  .00000249  00000+0  42034-4 0  9997
2 55060  97.9024 194.9002 0013799  95.4289 264.8496 14.77518637180782
