OBJECT_NAME,OBJECT_ID,EPOCH,MEAN_MOTION,ECCENTRICITY,INCLINATION,RA_OF_ASC_NODE,ARG_OF_PERICENTER,MEAN_ANOMALY,EPHEMERIS_TYPE,CLASSIFICATION_TYPE,NORAD_CAT_ID,ELEMENT_SET_NO,REV_AT_EPOCH,BSTAR,MEAN_MOTION_DOT,MEAN_MOTION_DDOT
SHERPA-LTC2,2022-107BG,2026-05-10T23:33:54.453600,14.69165493,.0397842,53.2348,17.7803,122.0886,241.9363,0,U,53754,999,19707,.22393E-3,.4285E-4,0
CENTISPACE-1 S3,2022-108A,2026-05-11T03:13:31.409184,14.61218071,.0008288,53.5323,208.4707,241.3574,118.6568,0,U,53757,999,19611,.76405E-4,.19E-5,0
CENTISPACE-1 S4,2022-108B,2026-05-11T03:15:35.736192,14.61890591,.0008076,53.5298,206.1569,226.9701,133.0598,0,U,53758,999,19614,.9597E-4,.294E-5,0
BLUEWALKER-3,2022-111AL,2026-05-10T22:40:48.895104,15.37823657,.0007346,53.2287,208.7467,65.3495,294.8275,0,U,53807,999,20447,.10287E-3,.3489E-4,0
YUNHAI-1 03,2022-115A,2026-05-11T04:09:31.489632,14.32692076,.0005359,98.5538,129.7918,143.6368,216.5181,0,U,53877,999,19021,.11412E-3,.267E-5,0
CENTISPACE-1 S5,2022-126A,2026-05-11T04:31:14.011104,14.62945762,.0012183,55.0003,1.0098,358.3992,1.6961,0,U,54020,999,19162,.1334E-3,.499E-5,0
CENTISPACE-1 S6,2022-126B,2026-05-11T03:55:17.853312,14.62236215,.0014024,55.0005,2.8049,357.2272,2.8642,0,U,54021,999,19158,.11535E-3,.398E-5,0
OTB-3-GAZELLE,2022-127A,2026-05-11T05:33:26.605152,14.42660808,.0012065,98.3940,123.5010,303.6321,56.3717,0,U,54023,999,18903,.41547E-4,.95E-6,0
HJ-2E,2022-132A,2026-05-11T04:55:19.924608,15.21758856,.0022161,97.3810,136.2649,135.5684,224.7335,0,U,54035,999,19879,.21223E-3,.4773E-4,0
COSMOS 2561,2022-137A,2026-05-11T04:45:41.492160,15.50761878,.0010879,96.9225,191.5996,153.2518,206.9298,0,U,54109,999,20061,.16193E-3,.9254E-4,0
GONETS-M 24,2022-139B,2026-05-11T04:58:32.085984,12.42889687,.0016231,82.5000,10.3622,316.0844,43.8944,0,U,54151,999,16105,.22716E-4,.13E-6,0
GONETS-M 25,2022-139C,2026-05-11T04:38:52.617984,12.42888977,.0020116,82.5077,11.0369,313.8824,46.0594,0,U,54152,999,16105,.32189E-4,.14E-6,0
SKIF-D,2022-139D,2026-05-09T06:49:32.850336,5.00439038,.00073738,89.9558,96.6795,214.5123,145.4786,0,U,54153,999,6216,0,.4E-6,0
MATS,2022-147A,2026-05-10T22:55:08.856768,15.05120392,.0011728,97.6826,132.7202,332.4827,27.5777,0,U,54227,999,19216,.20964E-3,.2925E-4,0
JILIN-1 GAOFEN 03D54,2022-155D,2026-05-11T04:24:24.845760,15.82487871,.0002214,97.6082,279.9059,166.8067,193.3260,0,U,54254,999,19442,.5583E-3,.116923E-2,0
EOS-6 (OCEANSAT-3),2022-158A,2026-05-11T05:41:35.472768,14.47018739,.0002258,98.3515,229.9257,90.0308,270.1143,0,U,54361,999,18249,.54903E-4,.156E-5,0
DONGPO 09,2022-167D,2026-05-11T05:01:02.402112,15.35516537,.0001366,97.6877,300.5972,231.0492,129.0629,0,U,54685,999,18977,.22274E-3,.7602E-4,0
DONGPO 08,2022-167E,2026-05-11T04:35:13.962912,15.32921295,.0006997,97.6838,297.9293,302.2082,57.8480,0,U,54686,999,18965,.20898E-3,.6565E-4,0
2022-167F,2022-167F,2026-05-11T02:31:39.292896,15.80676727,.0003219,97.6175,314.8150,182.8780,177.2469,0,U,54687,999,19095,.4877E-3,.93713E-3,0
DONGPO 10,2022-167H,2026-05-11T05:12:23.133888,15.33701055,.0004047,97.6922,299.8207,234.7810,125.3053,0,U,54689,999,18969,.21923E-3,.7061E-4,0
STAR VIBE,2023-001A,2026-05-11T04:23:26.023776,15.41605949,.0004523,97.3193,195.5227,235.0564,125.0259,0,U,55009,999,18652,.23135E-3,.9651E-4,0
BRO-8,2023-001C,2026-05-11T04:46:29.713728,15.46856326,.0004804,97.3239,195.9112,241.6307,118.4459,0,U,55011,999,18648,.40708E-3,.20392E-3,0
CONNECTA T1.2,2023-001D,2026-05-11T03:53:22.512768,15.48089338,.0005797,97.3299,201.2688,213.5158,146.5726,0,U,55012,999,18681,.48007E-3,.25134E-3,0
ION SCV-008,2023-001AU,2026-05-11T04:19:40.459296,15.28112441,.0016086,97.5682,226.8979,139.7205,220.5229,0,U,55051,999,18568,.16624E-3,.4494E-4,0
ION SCV-007,2023-001BD,2026-05-11T03:42:16.939008,14.77518637,.00138,97.9024,194.9002,95.4289,264.8496,0,U,55060,999,18078,.42034E-4,.249E-5,0
